{"type": "FeatureCollection", "features": [ {"type": "Feature", "properties": {"norad_id": 67120, "name": "STARLINK-36217", "group": "last-30-days", "lat": 0.32895254477452995, "lon": -95.28664069368035, "alt_km": 284.7651266275334, "timestamp": "2025-12-21T07:34:33.305136+00:00", "meta": {"OBJECT_NAME": "STARLINK-36217", "OBJECT_ID": "2025-299U", "EPOCH": "2025-12-20T22:00:01.999584", "MEAN_MOTION": 15.974087, "ECCENTRICITY": 0.00017523, "INCLINATION": 42.9997, "RA_OF_ASC_NODE": 266.8602, "ARG_OF_PERICENTER": 264.5667, "MEAN_ANOMALY": 319.6407, "EPHEMERIS_TYPE": 0, "CLASSIFICATION_TYPE": "U", "NORAD_CAT_ID": 67120, "ELEMENT_SET_NO": 999, "REV_AT_EPOCH": 212, "BSTAR": -0.0034351487, "MEAN_MOTION_DOT": -0.015743, "MEAN_MOTION_DDOT": 0.0007322674}, "tle": {"line1": "1 67120U 25299U   25354.91668981 -.01574300  73227-3 -34351-2 0  9994", "line2": "2 67120  42.9997 266.8602 0001752 264.5667 319.6407 15.97408700  2125"}}, "geometry": {"type": "Point", "coordinates": [-95.28664069368035, 0.32895254477452995]}}, {"type": "Feature", "properties": {"norad_id": 67121, "name": "STARLINK-36124", "group": "last-30-days", "lat": 2.9749743495955565, "lon": -92.45228024687347, "alt_km": 283.85639983524925, "timestamp": "2025-12-21T07:34:33.305145+00:00", "meta": {"OBJECT_NAME": "STARLINK-36124", "OBJECT_ID": "2025-299V", "EPOCH": "2025-12-20T22:00:01.999584", "MEAN_MOTION": 15.97640609, "ECCENTRICITY": 0.00017733, "INCLINATION": 42.9996, "RA_OF_ASC_NODE": 266.8512, "ARG_OF_PERICENTER": 265.868, "MEAN_ANOMALY": 321.8966, "EPHEMERIS_TYPE": 0, "CLASSIFICATION_TYPE": "U", "NORAD_CAT_ID": 67121, "ELEMENT_SET_NO": 999, "REV_AT_EPOCH": 212, "BSTAR": -0.0034246101, "MEAN_MOTION_DOT": -0.01589646, "MEAN_MOTION_DDOT": 0.00074729322}, "tle": {"line1": "1 67121U 25299V   25354.91668981 -.01589646  74729-3 -34246-2 0  9995", "line2": "2 67121  42.9996 266.8512 0001773 265.8680 321.8966 15.97640609  2128"}}, "geometry": {"type": "Point", "coordinates": [-92.45228024687347, 2.9749743495955565]}}, {"type": "Feature", "properties": {"norad_id": 67122, "name": "STARLINK-36188", "group": "last-30-days", "lat": 3.7757391716006548, "lon": -91.59103136096577, "alt_km": 283.6328104744007, "timestamp": "2025-12-21T07:34:33.305156+00:00", "meta": {"OBJECT_NAME": "STARLINK-36188", "OBJECT_ID": "2025-299W", "EPOCH": "2025-12-20T22:00:01.999584", "MEAN_MOTION": 15.97713836, "ECCENTRICITY": 0.00017721, "INCLINATION": 42.9996, "RA_OF_ASC_NODE": 266.8486, "ARG_OF_PERICENTER": 263.9069, "MEAN_ANOMALY": 324.9311, "EPHEMERIS_TYPE": 0, "CLASSIFICATION_TYPE": "U", "NORAD_CAT_ID": 67122, "ELEMENT_SET_NO": 999, "REV_AT_EPOCH": 212, "BSTAR": -0.0034185201, "MEAN_MOTION_DOT": -0.01593258, "MEAN_MOTION_DDOT": 0.00075100595}, "tle": {"line1": "1 67122U 25299W   25354.91668981 -.01593258  75101-3 -34185-2 0  9997", "line2": "2 67122  42.9996 266.8486 0001772 263.9069 324.9311 15.97713836  2129"}}, "geometry": {"type": "Point", "coordinates": [-91.59103136096577, 3.7757391716006548]}}, {"type": "Feature", "properties": {"norad_id": 67123, "name": "STARLINK-36151", "group": "last-30-days", "lat": 1.97365270221637, "lon": -93.52626876409101, "alt_km": 284.22290258648536, "timestamp": "2025-12-21T07:34:33.305166+00:00", "meta": {"OBJECT_NAME": "STARLINK-36151", "OBJECT_ID": "2025-299X", "EPOCH": "2025-12-20T22:00:01.999584", "MEAN_MOTION": 15.97547803, "ECCENTRICITY": 0.00017187, "INCLINATION": 42.9998, "RA_OF_ASC_NODE": 266.8547, "ARG_OF_PERICENTER": 264.883, "MEAN_ANOMALY": 321.5418, "EPHEMERIS_TYPE": 0, "CLASSIFICATION_TYPE": "U", "NORAD_CAT_ID": 67123, "ELEMENT_SET_NO": 999, "REV_AT_EPOCH": 212, "BSTAR": -0.0034263816, "MEAN_MOTION_DOT": -0.01582353, "MEAN_MOTION_DDOT": 0.00074026315}, "tle": {"line1": "1 67123U 25299X   25354.91668981 -.01582353  74026-3 -34264-2 0  9995", "line2": "2 67123  42.9998 266.8547 0001718 264.8830 321.5418 15.97547803  2126"}}, "geometry": {"type": "Point", "coordinates": [-93.52626876409101, 1.97365270221637]}}, {"type": "Feature", "properties": {"norad_id": 67124, "name": "STARLINK-36195", "group": "last-30-days", "lat": 4.6923843598340875, "lon": -90.60217146895616, "alt_km": 283.26098758599255, "timestamp": "2025-12-21T07:34:33.305176+00:00", "meta": {"OBJECT_NAME": "STARLINK-36195", "OBJECT_ID": "2025-299Y", "EPOCH": "2025-12-20T22:00:01.999584", "MEAN_MOTION": 15.97794477, "ECCENTRICITY": 0.00017413, "INCLINATION": 42.9999, "RA_OF_ASC_NODE": 266.8455, "ARG_OF_PERICENTER": 265.9665, "MEAN_ANOMALY": 324.1061, "EPHEMERIS_TYPE": 0, "CLASSIFICATION_TYPE": "U", "NORAD_CAT_ID": 67124, "ELEMENT_SET_NO": 999, "REV_AT_EPOCH": 212, "BSTAR": -0.0034107503, "MEAN_MOTION_DOT": -0.01596746, "MEAN_MOTION_DDOT": 0.00075468063}, "tle": {"line1": "1 67124U 25299Y   25354.91668981 -.01596746  75468-3 -34108-2 0  9995", "line2": "2 67124  42.9999 266.8455 0001741 265.9665 324.1061 15.97794477  2124"}}, "geometry": {"type": "Point", "coordinates": [-90.60217146895616, 4.6923843598340875]}}, {"type": "Feature", "properties": {"norad_id": 67125, "name": "STARLINK-36219", "group": "last-30-days", "lat": 5.536092691828816, "lon": -89.6886421000812, "alt_km": 283.0257782500885, "timestamp": "2025-12-21T07:34:33.305185+00:00", "meta": {"OBJECT_NAME": "STARLINK-36219", "OBJECT_ID": "2025-299Z", "EPOCH": "2025-12-20T22:00:01.999584", "MEAN_MOTION": 15.97874499, "ECCENTRICITY": 0.00017031, "INCLINATION": 42.9996, "RA_OF_ASC_NODE": 266.8423, "ARG_OF_PERICENTER": 263.3874, "MEAN_ANOMALY": 327.8169, "EPHEMERIS_TYPE": 0, "CLASSIFICATION_TYPE": "U", "NORAD_CAT_ID": 67125, "ELEMENT_SET_NO": 999, "REV_AT_EPOCH": 212, "BSTAR": -0.0034083087, "MEAN_MOTION_DOT": -0.01602657, "MEAN_MOTION_DDOT": 0.00076048493}, "tle": {"line1": "1 67125U 25299Z   25354.91668981 -.01602657  76048-3 -34083-2 0  9992", "line2": "2 67125  42.9996 266.8423 0001703 263.3874 327.8169 15.97874499  2121"}}, "geometry": {"type": "Point", "coordinates": [-89.6886421000812, 5.536092691828816]}}, {"type": "Feature", "properties": {"norad_id": 67126, "name": "STARLINK-36223", "group": "last-30-days", "lat": 6.583269438385172, "lon": -88.54864163889515, "alt_km": 282.72557756924107, "timestamp": "2025-12-21T07:34:33.305194+00:00", "meta": {"OBJECT_NAME": "STARLINK-36223", "OBJECT_ID": "2025-299AA", "EPOCH": "2025-12-20T22:00:01.999584", "MEAN_MOTION": 15.97974751, "ECCENTRICITY": 0.00016655, "INCLINATION": 42.9997, "RA_OF_ASC_NODE": 266.8387, "ARG_OF_PERICENTER": 260.109, "MEAN_ANOMALY": 332.5011, "EPHEMERIS_TYPE": 0, "CLASSIFICATION_TYPE": "U", "NORAD_CAT_ID": 67126, "ELEMENT_SET_NO": 999, "REV_AT_EPOCH": 212, "BSTAR": -0.0034032829, "MEAN_MOTION_DOT": -0.01609188, "MEAN_MOTION_DDOT": 0.00076702533}, "tle": {"line1": "1 67126U 25299AA  25354.91668981 -.01609188  76703-3 -34033-2 0  9992", "line2": "2 67126  42.9997 266.8387 0001665 260.1090 332.5011 15.97974751  2125"}}, "geometry": {"type": "Point", "coordinates": [-88.54864163889515, 6.583269438385172]}}, {"type": "Feature", "properties": {"norad_id": 67127, "name": "STARLINK-36164", "group": "last-30-days", "lat": 7.508039445297972, "lon": -87.53531150309762, "alt_km": 282.21880956498353, "timestamp": "2025-12-21T07:34:33.305203+00:00", "meta": {"OBJECT_NAME": "STARLINK-36164", "OBJECT_ID": "2025-299AB", "EPOCH": "2025-12-20T22:00:01.999584", "MEAN_MOTION": 15.98067128, "ECCENTRICITY": 0.00017182, "INCLINATION": 42.9996, "RA_OF_ASC_NODE": 266.8357, "ARG_OF_PERICENTER": 267.1517, "MEAN_ANOMALY": 326.6995, "EPHEMERIS_TYPE": 0, "CLASSIFICATION_TYPE": "U", "NORAD_CAT_ID": 67127, "ELEMENT_SET_NO": 999, "REV_AT_EPOCH": 212, "BSTAR": -0.0034138141, "MEAN_MOTION_DOT": -0.01622373, "MEAN_MOTION_DDOT": 0.00077942991}, "tle": {"line1": "1 67127U 25299AB  25354.91668981 -.01622373  77943-3 -34138-2 0  9997", "line2": "2 67127  42.9996 266.8357 0001718 267.1517 326.6995 15.98067128  2129"}}, "geometry": {"type": "Point", "coordinates": [-87.53531150309762, 7.508039445297972]}}, {"type": "Feature", "properties": {"norad_id": 67128, "name": "STARLINK-35685", "group": "last-30-days", "lat": 10.304033165763947, "lon": -84.4260748415604, "alt_km": 281.7403455084377, "timestamp": "2025-12-21T07:34:33.305212+00:00", "meta": {"OBJECT_NAME": "STARLINK-35685", "OBJECT_ID": "2025-299AC", "EPOCH": "2025-12-20T22:00:01.999584", "MEAN_MOTION": 15.98104446, "ECCENTRICITY": 0.00017853, "INCLINATION": 42.9994, "RA_OF_ASC_NODE": 266.8253, "ARG_OF_PERICENTER": 261.9915, "MEAN_ANOMALY": 335.9098, "EPHEMERIS_TYPE": 0, "CLASSIFICATION_TYPE": "U", "NORAD_CAT_ID": 67128, "ELEMENT_SET_NO": 999, "REV_AT_EPOCH": 212, "BSTAR": -0.0031929648, "MEAN_MOTION_DOT": -0.01521876, "MEAN_MOTION_DDOT": 0.00069303066}, "tle": {"line1": "1 67128U 25299AC  25354.91668981 -.01521876  69303-3 -31930-2 0  9992", "line2": "2 67128  42.9994 266.8253 0001785 261.9915 335.9098 15.98104446  2123"}}, "geometry": {"type": "Point", "coordinates": [-84.4260748415604, 10.304033165763947]}}, {"type": "Feature", "properties": {"norad_id": 67129, "name": "STARLINK-36214", "group": "last-30-days", "lat": 8.615961412279006, "lon": -86.31246978119572, "alt_km": 281.917063822013, "timestamp": "2025-12-21T07:34:33.305221+00:00", "meta": {"OBJECT_NAME": "STARLINK-36214", "OBJECT_ID": "2025-299AD", "EPOCH": "2025-12-20T22:00:01.999584", "MEAN_MOTION": 15.98174521, "ECCENTRICITY": 0.00016602, "INCLINATION": 42.9995, "RA_OF_ASC_NODE": 266.8317, "ARG_OF_PERICENTER": 263.1994, "MEAN_ANOMALY": 332.149, "EPHEMERIS_TYPE": 0, "CLASSIFICATION_TYPE": "U", "NORAD_CAT_ID": 67129, "ELEMENT_SET_NO": 999, "REV_AT_EPOCH": 212, "BSTAR": -0.0034202223, "MEAN_MOTION_DOT": -0.01635042, "MEAN_MOTION_DDOT": 0.00079161297}, "tle": {"line1": "1 67129U 25299AD  25354.91668981 -.01635042  79161-3 -34202-2 0  9992", "line2": "2 67129  42.9995 266.8317 0001660 263.1994 332.1490 15.98174521  2125"}}, "geometry": {"type": "Point", "coordinates": [-86.31246978119572, 8.615961412279006]}}]}